start=new Date('2022-02-04T00:00:00.000Z').valueOf();
sats=[{"PERIAPSIS":"546.022","RA_OF_ASC_NODE":"327.2658","OBJECT_TYPE":"PAYLOAD","MEAN_MOTION_DDOT":"0.0000000000000","NORAD_CAT_ID":"48280","ARG_OF_PERICENTER":"67.3305","SITE":"AFETR","FILE":"3291273","MEAN_ANOMALY":"292.7860","TLE_LINE2":"2 48280  53.0553 327.2658 0001666  67.3305 292.7860 15.06412406 42796","CENTER_NAME":"EARTH","RCS_SIZE":"LARGE","INCLINATION":"53.0553","DECAY_DATE":null,"LAUNCH_DATE":"2021-04-29","MEAN_ELEMENT_THEORY":"SGP4","TIME_SYSTEM":"UTC","SEMIMAJOR_AXIS":"6925.311","REV_AT_EPOCH":"4279","ECCENTRICITY":"0.00016660","OBJECT_ID":"2021-036E","APOAPSIS":"548.329","EPOCH":"2022-02-03T20:04:18.262272","MEAN_MOTION":"15.06412406","TLE_LINE1":"1 48280U 21036E   22034.83632248  .00009091  00000-0  62820-3 0  9991","ELEMENT_SET_NO":"999","COUNTRY_CODE":"US","MEAN_MOTION_DOT":"0.00009091","BSTAR":"0.00062820000000","PERIOD":"95.591","REF_FRAME":"TEME","GP_ID":"195259429","CLASSIFICATION_TYPE":"U","EPHEMERIS_TYPE":"0","OBJECT_NAME":"STARLINK-2565"},{"OBJECT_TYPE":"PAYLOAD","MEAN_MOTION_DDOT":"0.0000000000000","ARG_OF_PERICENTER":"63.9177","NORAD_CAT_ID":"48281","RA_OF_ASC_NODE":"307.2182","PERIAPSIS":"545.750","MEAN_ANOMALY":"296.2018","FILE":"3291273","SITE":"AFETR","RCS_SIZE":"LARGE","CENTER_NAME":"EARTH","TLE_LINE2":"2 48281  53.0554 307.2182 0002002  63.9177 296.2018 15.06425047 43073","DECAY_DATE":null,"LAUNCH_DATE":"2021-04-29","INCLINATION":"53.0554","OBJECT_ID":"2021-036F","ECCENTRICITY":"0.00020020","REV_AT_EPOCH":"4307","SEMIMAJOR_AXIS":"6925.272","MEAN_ELEMENT_THEORY":"SGP4","TIME_SYSTEM":"UTC","ELEMENT_SET_NO":"999","COUNTRY_CODE":"US","MEAN_MOTION_DOT":"0.00009916","TLE_LINE1":"1 48281U 21036F   22034.84922855  .00009916  00000-0  68322-3 0  9998","EPOCH":"2022-02-03T20:22:53.346720","MEAN_MOTION":"15.06425047","APOAPSIS":"548.523","CLASSIFICATION_TYPE":"U","GP_ID":"195260178","REF_FRAME":"TEME","PERIOD":"95.591","BSTAR":"0.00068322000000","OBJECT_NAME":"STARLINK-2520","EPHEMERIS_TYPE":"0"},{"COUNTRY_CODE":"US","ELEMENT_SET_NO":"999","MEAN_MOTION_DOT":"0.00002145","APOAPSIS":"548.355","EPOCH":"2022-02-03T19:21:10.629792","MEAN_MOTION":"15.06400927","TLE_LINE1":"1 48282U 21036G   22034.80637303  .00002145  00000-0  16288-3 0  9997","REV_AT_EPOCH":"4300","ECCENTRICITY":"0.00016530","OBJECT_ID":"2021-036G","TIME_SYSTEM":"UTC","MEAN_ELEMENT_THEORY":"SGP4","SEMIMAJOR_AXIS":"6925.346","OBJECT_NAME":"STARLINK-2558","EPHEMERIS_TYPE":"0","CLASSIFICATION_TYPE":"U","GP_ID":"195260431","BSTAR":"0.00016288000000","PERIOD":"95.592","REF_FRAME":"TEME","MEAN_ANOMALY":"298.1108","SITE":"AFETR","FILE":"3291273","NORAD_CAT_ID":"48282","OBJECT_TYPE":"PAYLOAD","MEAN_MOTION_DDOT":"0.0000000000000","ARG_OF_PERICENTER":"62.0048","PERIAPSIS":"546.066","RA_OF_ASC_NODE":"312.4189","DECAY_DATE":null,"LAUNCH_DATE":"2021-04-29","INCLINATION":"53.0549","CENTER_NAME":"EARTH","RCS_SIZE":"LARGE","TLE_LINE2":"2 48282  53.0549 312.4189 0001653  62.0048 298.1108 15.06400927 43005"},{"CENTER_NAME":"EARTH","RCS_SIZE":"LARGE","TLE_LINE2":"2 48283  53.0547 312.1381 0001764  56.2093 303.9064 15.06398871 43014","DECAY_DATE":null,"LAUNCH_DATE":"2021-04-29","INCLINATION":"53.0547","NORAD_CAT_ID":"48283","OBJECT_TYPE":"PAYLOAD","MEAN_MOTION_DDOT":"0.0000000000000","ARG_OF_PERICENTER":"56.2093","RA_OF_ASC_NODE":"312.1381","PERIAPSIS":"545.995","MEAN_ANOMALY":"303.9064","SITE":"AFETR","FILE":"3291273","CLASSIFICATION_TYPE":"U","GP_ID":"195259679","PERIOD":"95.592","BSTAR":"0.00003703600000","REF_FRAME":"TEME","OBJECT_NAME":"STARLINK-2516","EPHEMERIS_TYPE":"0","REV_AT_EPOCH":"4301","ECCENTRICITY":"0.00017640","OBJECT_ID":"2021-036H","MEAN_ELEMENT_THEORY":"SGP4","TIME_SYSTEM":"UTC","SEMIMAJOR_AXIS":"6925.352","MEAN_MOTION_DOT":"0.00000270","COUNTRY_CODE":"US","ELEMENT_SET_NO":"999","APOAPSIS":"548.439","TLE_LINE1":"1 48283U 21036H   22034.86902586  .00000270  00000-0  37036-4 0  9994","EPOCH":"2022-02-03T20:51:23.834304","MEAN_MOTION":"15.06398871"},{"APOAPSIS":"548.417","TLE_LINE1":"1 48284U 21036J   22034.79900702  .00000133  00000-0  27845-4 0  9990","MEAN_MOTION":"15.06395482","EPOCH":"2022-02-03T19:10:34.206528","MEAN_MOTION_DOT":"0.00000133","COUNTRY_CODE":"US","ELEMENT_SET_NO":"999","TIME_SYSTEM":"UTC","MEAN_ELEMENT_THEORY":"SGP4","SEMIMAJOR_AXIS":"6925.362","REV_AT_EPOCH":"4299","OBJECT_ID":"2021-036J","ECCENTRICITY":"0.00017180","EPHEMERIS_TYPE":"0","OBJECT_NAME":"STARLINK-2564","PERIOD":"95.592","BSTAR":"0.00002784500000","REF_FRAME":"TEME","CLASSIFICATION_TYPE":"U","GP_ID":"195259929","SITE":"AFETR","FILE":"3291273","MEAN_ANOMALY":"296.3326","RA_OF_ASC_NODE":"312.4338","PERIAPSIS":"546.038","MEAN_MOTION_DDOT":"0.0000000000000","OBJECT_TYPE":"PAYLOAD","NORAD_CAT_ID":"48284","ARG_OF_PERICENTER":"63.7839","INCLINATION":"53.0554","LAUNCH_DATE":"2021-04-29","DECAY_DATE":null,"TLE_LINE2":"2 48284  53.0554 312.4338 0001718  63.7839 296.3326 15.06395482 42995","CENTER_NAME":"EARTH","RCS_SIZE":"LARGE"},{"SITE":"AFETR","FILE":"3291273","MEAN_ANOMALY":"292.5658","RA_OF_ASC_NODE":"312.4560","PERIAPSIS":"546.115","OBJECT_TYPE":"PAYLOAD","NORAD_CAT_ID":"48285","MEAN_MOTION_DDOT":"0.0000000000000","ARG_OF_PERICENTER":"67.5495","INCLINATION":"53.0564","LAUNCH_DATE":"2021-04-29","DECAY_DATE":null,"TLE_LINE2":"2 48285  53.0564 312.4560 0001556  67.5495 292.5658 15.06406808 42995","CENTER_NAME":"EARTH","RCS_SIZE":"LARGE","APOAPSIS":"548.270","TLE_LINE1":"1 48285U 21036K   22034.79531311  .00001024  00000-0  87623-4 0  9997","MEAN_MOTION":"15.06406808","EPOCH":"2022-02-03T19:05:15.052704","COUNTRY_CODE":"US","ELEMENT_SET_NO":"999","MEAN_MOTION_DOT":"0.00001024","TIME_SYSTEM":"UTC","MEAN_ELEMENT_THEORY":"SGP4","SEMIMAJOR_AXIS":"6925.328","REV_AT_EPOCH":"4299","ECCENTRICITY":"0.00015560","OBJECT_ID":"2021-036K","EPHEMERIS_TYPE":"0","OBJECT_NAME":"STARLINK-2548","PERIOD":"95.592","BSTAR":"0.00008762300000","REF_FRAME":"TEME","CLASSIFICATION_TYPE":"U","GP_ID":"195260678"},{"TLE_LINE1":"1 48286U 21036L   22034.79162614  .00001308  00000-0  10666-3 0  9991","MEAN_MOTION":"15.06407318","EPOCH":"2022-02-03T18:59:56.498496","APOAPSIS":"548.431","COUNTRY_CODE":"US","MEAN_MOTION_DOT":"0.00001308","ELEMENT_SET_NO":"999","SEMIMAJOR_AXIS":"6925.326","MEAN_ELEMENT_THEORY":"SGP4","TIME_SYSTEM":"UTC","OBJECT_ID":"2021-036L","ECCENTRICITY":"0.00017910","REV_AT_EPOCH":"4299","EPHEMERIS_TYPE":"0","OBJECT_NAME":"STARLINK-2547","REF_FRAME":"TEME","PERIOD":"95.592","BSTAR":"0.00010666000000","CLASSIFICATION_TYPE":"U","GP_ID":"195260931","FILE":"3291273","SITE":"AFETR","MEAN_ANOMALY":"299.0010","RA_OF_ASC_NODE":"312.4828","PERIAPSIS":"545.951","NORAD_CAT_ID":"48286","OBJECT_TYPE":"PAYLOAD","MEAN_MOTION_DDOT":"0.0000000000000","ARG_OF_PERICENTER":"61.1159","INCLINATION":"53.0569","DECAY_DATE":null,"LAUNCH_DATE":"2021-04-29","TLE_LINE2":"2 48286  53.0569 312.4828 0001791  61.1159 299.0010 15.06407318 42997","RCS_SIZE":"LARGE","CENTER_NAME":"EARTH"},{"GP_ID":"195259180","CLASSIFICATION_TYPE":"U","REF_FRAME":"TEME","BSTAR":"0.00022577000000","PERIOD":"95.592","OBJECT_NAME":"STARLINK-2566","EPHEMERIS_TYPE":"0","ECCENTRICITY":"0.00018070","OBJECT_ID":"2021-036M","REV_AT_EPOCH":"4300","SEMIMAJOR_AXIS":"6925.338","MEAN_ELEMENT_THEORY":"SGP4","TIME_SYSTEM":"UTC","MEAN_MOTION_DOT":"0.00003083","COUNTRY_CODE":"US","ELEMENT_SET_NO":"999","EPOCH":"2022-02-03T20:30:09.941472","MEAN_MOTION":"15.06403545","TLE_LINE1":"1 48287U 21036M   22034.85428173  .00003083  00000-0  22577-3 0  9990","APOAPSIS":"548.454","CENTER_NAME":"EARTH","RCS_SIZE":"LARGE","TLE_LINE2":"2 48287  53.0551 312.1882 0001807  62.3589 297.7584 15.06403545 43006","DECAY_DATE":null,"LAUNCH_DATE":"2021-04-29","INCLINATION":"53.0551","MEAN_MOTION_DDOT":"0.0000000000000","OBJECT_TYPE":"PAYLOAD","NORAD_CAT_ID":"48287","ARG_OF_PERICENTER":"62.3589","PERIAPSIS":"545.951","RA_OF_ASC_NODE":"312.1882","MEAN_ANOMALY":"297.7584","FILE":"3291273","SITE":"AFETR"},{"GP_ID":"195259430","CLASSIFICATION_TYPE":"U","REF_FRAME":"TEME","PERIOD":"95.592","BSTAR":"0.00030276000000","OBJECT_NAME":"STARLINK-2562","EPHEMERIS_TYPE":"0","ECCENTRICITY":"0.00016850","OBJECT_ID":"2021-036N","REV_AT_EPOCH":"4299","SEMIMAJOR_AXIS":"6925.325","MEAN_ELEMENT_THEORY":"SGP4","TIME_SYSTEM":"UTC","COUNTRY_CODE":"US","MEAN_MOTION_DOT":"0.00004232","ELEMENT_SET_NO":"999","TLE_LINE1":"1 48288U 21036N   22034.78425614  .00004232  00000-0  30276-3 0  9992","MEAN_MOTION":"15.06407767","EPOCH":"2022-02-03T18:49:19.730496","APOAPSIS":"548.357","RCS_SIZE":"LARGE","CENTER_NAME":"EARTH","TLE_LINE2":"2 48288  53.0562 312.5161 0001685  63.3467 296.7695 15.06407767 42992","LAUNCH_DATE":"2021-04-29","DECAY_DATE":null,"INCLINATION":"53.0562","OBJECT_TYPE":"PAYLOAD","MEAN_MOTION_DDOT":"0.0000000000000","NORAD_CAT_ID":"48288","ARG_OF_PERICENTER":"63.3467","RA_OF_ASC_NODE":"312.5161","PERIAPSIS":"546.023","MEAN_ANOMALY":"296.7695","FILE":"3291273","SITE":"AFETR"},{"LAUNCH_DATE":"2021-04-29","DECAY_DATE":null,"INCLINATION":"53.0556","CENTER_NAME":"EARTH","RCS_SIZE":"LARGE","TLE_LINE2":"2 48289  53.0556 315.1978 0001654  67.1186 292.9977 15.06390417 42902","MEAN_ANOMALY":"292.9977","FILE":"3291268","SITE":"AFETR","OBJECT_TYPE":"PAYLOAD","ARG_OF_PERICENTER":"67.1186","MEAN_MOTION_DDOT":"0.0000000000000","NORAD_CAT_ID":"48289","RA_OF_ASC_NODE":"315.1978","PERIAPSIS":"546.097","OBJECT_NAME":"STARLINK-2545","EPHEMERIS_TYPE":"0","GP_ID":"195235696","CLASSIFICATION_TYPE":"U","REF_FRAME":"TEME","PERIOD":"95.593","BSTAR":"0.00005373400000","MEAN_MOTION_DOT":"0.00000519","COUNTRY_CODE":"US","ELEMENT_SET_NO":"999","TLE_LINE1":"1 48289U 21036P   22034.18346113  .00000519  00000-0  53734-4 0  9992","EPOCH":"2022-02-03T04:24:11.041632","MEAN_MOTION":"15.06390417","APOAPSIS":"548.388","ECCENTRICITY":"0.00016540","OBJECT_ID":"2021-036P","REV_AT_EPOCH":"4290","SEMIMAJOR_AXIS":"6925.378","MEAN_ELEMENT_THEORY":"SGP4","TIME_SYSTEM":"UTC"}];
